APRIZESAT 2             
1 28366U 04025A   26165.91899291  .00000129  00000+0  53666-4 0  9995
2 28366  98.1011 332.0278 0104297 256.7764 102.1773 14.38034995151310
SAUDICOMSAT 1           
1 28369U 04025D   26165.95386116  .00000335  00000+0  87787-4 0  9999
2 28369  98.5771 176.0251 0032794  32.3433 327.9765 14.55472181163807
SAUDICOMSAT 2           
1 28370U 04025E   26165.98590979  .00000219  00000+0  68262-4 0  9996
2 28370  98.6641 178.1698 0054148 266.3042  93.1958 14.49980142159788
APRIZESAT 1             
1 28372U 04025G   26166.02029139  .00000192  00000+0  59318-4 0  9991
2 28372  98.6303 176.6869 0044975 160.3540 199.9400 14.51775986161591
NANOSAT-1               
1 28493U 04049B   26166.27626194  .00000855  00000+0  11986-3 0  9996
2 28493  98.2273 302.8905 0002904 311.2278  48.8682 14.80156098155161
SAUDICOMSAT 7           
1 31119U 07012C   26166.20180805  .00000361  00000+0  73847-4 0  9992
2 31119  98.3778 140.2929 0055149 201.4711 158.4179 14.66108512 22144
SAUDICOMSAT 6           
1 31121U 07012E   26166.17470670  .00000503  00000+0  10584-3 0  9999
2 31121  98.4098 133.6536 0071192 334.0956  25.6687 14.62556066 19897
SAUDICOMSAT 5           
1 31124U 07012H   26166.17802787  .00000520  00000+0  98008-4 0  9997
2 31124  98.3489 141.0162 0048355 130.8883 229.6525 14.68154099 23301
SAUDICOMSAT 3           
1 31125U 07012J   26166.21012617  .00000718  00000+0  12511-3 0  9991
2 31125  98.3143 141.5973 0040324  59.2974 301.2195 14.70702629 24534
SAUDICOMSAT 4           
1 31127U 07012L   26166.17328973  .00000387  00000+0  81067-4 0  9998
2 31127  98.3983 138.7027 0062055 264.6574  94.7545 14.64510454 20994
APRIZESAT 4             
1 35684U 09041D   26166.16666432  .00000554  00000+0  72785-4 0  9991
2 35684  98.1413 241.4469 0042527 329.7444  30.1314 14.83876881911060
APRIZESAT 3             
1 35686U 09041F   26166.15959498  .00001447  00000+0  12913-3 0  9997
2 35686  98.2056 319.2863 0062761  74.2807 286.5324 14.96235077916079
S-NET D                 
1 43186U 18014G   26166.28467622  .00004634  00000+0  24007-3 0  9996
2 43186  97.5370  71.0875 0009114  36.1166 324.0681 15.16657298458473
S-NET B                 
1 43187U 18014H   26166.23011396  .00004268  00000+0  22153-3 0  9998
2 43187  97.5377  71.0202 0009620  31.4582 328.7225 15.16626414458467
S-NET A                 
1 43188U 18014J   26166.28356420  .00004630  00000+0  23980-3 0  9996
2 43188  97.5385  71.2812 0009525  32.0131 328.1679 15.16665136458479
S-NET C                 
1 43189U 18014K   26166.29995792  .00004162  00000+0  21616-3 0  9993
2 43189  97.5402  71.3721 0010661  23.9370 336.2357 15.16618943457024
SALSAT                  
1 46495U 20068K   26165.98698011  .00006897  00000+0  24187-3 0  9990
2 46495  97.8843 168.9176 0008203 317.5916  42.4688 15.29772719315025
OOV-CUBE (TUBSAT-30)    
1 60240U 24128F   26166.25891672  .00001750  00000+0  14324-3 0  9999
2 60240  61.9945 232.2972 0044856 133.2746 227.2101 15.02767420105823
LPNTSAT-001 (IOD-1)     
1 68408U 26065A   26165.90223272  .00002562  00000+0  12699-3 0  9996
2 68408  97.4023  46.4606 0016921  18.5546 341.6301 15.18527662 11910
